COSMOS 1933             
1 18958U 88020A   26041.16776888  .00003479  00000+0  17093-3 0  9998
2 18958  82.5122 278.1420 0003110 314.0105  46.0872 15.17745136 46058
SL-3 R/B                
1 19046U 88032B   26041.47347834  .00006181  00000+0  29157-3 0  9996
2 19046  97.5153  24.8376 0025220 333.1077  26.8849 15.19556602 47971
SL-16 R/B               
1 19120U 88039B   26041.49983897 -.00000013  00000+0  16362-4 0  9997
2 19120  71.0148 126.0437 0021080  15.7603 344.4173 14.19611603954525
COSMOS 1953             
1 19210U 88050A   26041.45283356  .00010178  00000+0  37113-3 0  9997
2 19210  82.5093 185.6221 0010758 216.2683 143.7828 15.27974767 33628
SL-8 R/B                
1 19257U 88053B   26041.47346112  .00000273  00000+0  97056-4 0  9991
2 19257  74.0481 162.6277 0020480 346.8781  81.1453 14.38899299972688
COSMOS 1975             
1 19573U 88093A   26041.34813268  .00009191  00000+0  33906-3 0  9994
2 19573  82.5220 145.1137 0010336 265.7281  94.2776 15.27588086 15238
SL-14 R/B               
1 19574U 88093B   26041.52907675  .00000470  00000+0  51261-4 0  9997
2 19574  82.5279  67.5477 0021999 125.5572 348.9734 14.85625374997002
SL-16 R/B               
1 19650U 88102B   26041.49854939  .00000301  00000+0  17637-3 0  9994
2 19650  70.9976 208.7055 0012545  46.3746 313.8415 14.16148229923046
INTERCOSMOS 24          
1 20261U 89080A   26041.32055373  .00000552  00000+0  15955-3 0  9996
2 20261  82.6065 122.2191 1187951 356.3814   2.9212 12.59519982663350
SL-14 R/B               
1 20262U 89080C   26041.34965568  .00000479  00000+0  14496-3 0  9992
2 20262  82.5946 190.7364 1229482 247.2661  99.4084 12.50459817656737
DELTA 1 R/B             
1 20323U 89089B   26041.51294664  .00000409  00000+0  10989-3 0  9996
2 20323  97.0725 253.2705 0068342 207.5331 152.2241 14.50640295891797
ARIANE 40 R/B           
1 20443U 90005H   26041.15589988  .00000281  00000+0  10304-3 0  9994
2 20443  98.3146 102.6295 0008935 289.4290  70.5932 14.39851822888845
