CCSDS_OMM_VERS = 2.0
CREATION_DATE  = 
ORIGINATOR     = 

OBJECT_NAME    = COSMOS 1933
OBJECT_ID      = 1988-020A
CENTER_NAME    = EARTH
REF_FRAME      = TEME
TIME_SYSTEM    = UTC
MEAN_ELEMENT_THEORY = SGP/SGP4

EPOCH          = 2026-02-10T04:01:35.231232
MEAN_MOTION    = 15.17745136
ECCENTRICITY   = .000311
INCLINATION    = 82.5122
RA_OF_ASC_NODE = 278.1420
ARG_OF_PERICENTER = 314.0105
MEAN_ANOMALY   = 46.0872

EPHEMERIS_TYPE = 0
CLASSIFICATION_TYPE = U
NORAD_CAT_ID   = 18958
ELEMENT_SET_NO = 999
REV_AT_EPOCH   = 4605
BSTAR          = .17093E-3
MEAN_MOTION_DOT = .3479E-4
MEAN_MOTION_DDOT = 0

CCSDS_OMM_VERS = 2.0
CREATION_DATE  = 
ORIGINATOR     = 

OBJECT_NAME    = SL-3 R/B
OBJECT_ID      = 1988-032B
CENTER_NAME    = EARTH
REF_FRAME      = TEME
TIME_SYSTEM    = UTC
MEAN_ELEMENT_THEORY = SGP/SGP4

EPOCH          = 2026-02-10T11:21:48.528576
MEAN_MOTION    = 15.19556602
ECCENTRICITY   = .002522
INCLINATION    = 97.5153
RA_OF_ASC_NODE = 24.8376
ARG_OF_PERICENTER = 333.1077
MEAN_ANOMALY   = 26.8849

EPHEMERIS_TYPE = 0
CLASSIFICATION_TYPE = U
NORAD_CAT_ID   = 19046
ELEMENT_SET_NO = 999
REV_AT_EPOCH   = 4797
BSTAR          = .29157E-3
MEAN_MOTION_DOT = .6181E-4
MEAN_MOTION_DDOT = 0

CCSDS_OMM_VERS = 2.0
CREATION_DATE  = 
ORIGINATOR     = 

OBJECT_NAME    = SL-16 R/B
OBJECT_ID      = 1988-039B
CENTER_NAME    = EARTH
REF_FRAME      = TEME
TIME_SYSTEM    = UTC
MEAN_ELEMENT_THEORY = SGP/SGP4

EPOCH          = 2026-02-10T11:59:46.087008
MEAN_MOTION    = 14.19611603
ECCENTRICITY   = .002108
INCLINATION    = 71.0148
RA_OF_ASC_NODE = 126.0437
ARG_OF_PERICENTER = 15.7603
MEAN_ANOMALY   = 344.4173

EPHEMERIS_TYPE = 0
CLASSIFICATION_TYPE = U
NORAD_CAT_ID   = 19120
ELEMENT_SET_NO = 999
REV_AT_EPOCH   = 95452
BSTAR          = .16362E-4
MEAN_MOTION_DOT = -.13E-6
MEAN_MOTION_DDOT = 0

CCSDS_OMM_VERS = 2.0
CREATION_DATE  = 
ORIGINATOR     = 

OBJECT_NAME    = COSMOS 1953
OBJECT_ID      = 1988-050A
CENTER_NAME    = EARTH
REF_FRAME      = TEME
TIME_SYSTEM    = UTC
MEAN_ELEMENT_THEORY = SGP/SGP4

EPOCH          = 2026-02-10T10:52:04.819584
MEAN_MOTION    = 15.27974767
ECCENTRICITY   = .0010758
INCLINATION    = 82.5093
RA_OF_ASC_NODE = 185.6221
ARG_OF_PERICENTER = 216.2683
MEAN_ANOMALY   = 143.7828

EPHEMERIS_TYPE = 0
CLASSIFICATION_TYPE = U
NORAD_CAT_ID   = 19210
ELEMENT_SET_NO = 999
REV_AT_EPOCH   = 3362
BSTAR          = .37113E-3
MEAN_MOTION_DOT = .10178E-3
MEAN_MOTION_DDOT = 0

CCSDS_OMM_VERS = 2.0
CREATION_DATE  = 
ORIGINATOR     = 

OBJECT_NAME    = SL-8 R/B
OBJECT_ID      = 1988-053B
CENTER_NAME    = EARTH
REF_FRAME      = TEME
TIME_SYSTEM    = UTC
MEAN_ELEMENT_THEORY = SGP/SGP4

EPOCH          = 2026-02-10T11:21:47.040768
MEAN_MOTION    = 14.38899299
ECCENTRICITY   = .002048
INCLINATION    = 74.0481
RA_OF_ASC_NODE = 162.6277
ARG_OF_PERICENTER = 346.8781
MEAN_ANOMALY   = 81.1453

EPHEMERIS_TYPE = 0
CLASSIFICATION_TYPE = U
NORAD_CAT_ID   = 19257
ELEMENT_SET_NO = 999
REV_AT_EPOCH   = 97268
BSTAR          = .97056E-4
MEAN_MOTION_DOT = .273E-5
MEAN_MOTION_DDOT = 0

CCSDS_OMM_VERS = 2.0
CREATION_DATE  = 
ORIGINATOR     = 

OBJECT_NAME    = COSMOS 1975
OBJECT_ID      = 1988-093A
CENTER_NAME    = EARTH
REF_FRAME      = TEME
TIME_SYSTEM    = UTC
MEAN_ELEMENT_THEORY = SGP/SGP4

EPOCH          = 2026-02-10T08:21:18.663552
MEAN_MOTION    = 15.27588086
ECCENTRICITY   = .0010336
INCLINATION    = 82.5220
RA_OF_ASC_NODE = 145.1137
ARG_OF_PERICENTER = 265.7281
MEAN_ANOMALY   = 94.2776

EPHEMERIS_TYPE = 0
CLASSIFICATION_TYPE = U
NORAD_CAT_ID   = 19573
ELEMENT_SET_NO = 999
REV_AT_EPOCH   = 1523
BSTAR          = .33906E-3
MEAN_MOTION_DOT = .9191E-4
MEAN_MOTION_DDOT = 0

CCSDS_OMM_VERS = 2.0
CREATION_DATE  = 
ORIGINATOR     = 

OBJECT_NAME    = SL-14 R/B
OBJECT_ID      = 1988-093B
CENTER_NAME    = EARTH
REF_FRAME      = TEME
TIME_SYSTEM    = UTC
MEAN_ELEMENT_THEORY = SGP/SGP4

EPOCH          = 2026-02-10T12:41:52.231200
MEAN_MOTION    = 14.85625374
ECCENTRICITY   = .0021999
INCLINATION    = 82.5279
RA_OF_ASC_NODE = 67.5477
ARG_OF_PERICENTER = 125.5572
MEAN_ANOMALY   = 348.9734

EPHEMERIS_TYPE = 0
CLASSIFICATION_TYPE = U
NORAD_CAT_ID   = 19574
ELEMENT_SET_NO = 999
REV_AT_EPOCH   = 99700
BSTAR          = .51261E-4
MEAN_MOTION_DOT = .47E-5
MEAN_MOTION_DDOT = 0

CCSDS_OMM_VERS = 2.0
CREATION_DATE  = 
ORIGINATOR     = 

OBJECT_NAME    = SL-16 R/B
OBJECT_ID      = 1988-102B
CENTER_NAME    = EARTH
REF_FRAME      = TEME
TIME_SYSTEM    = UTC
MEAN_ELEMENT_THEORY = SGP/SGP4

EPOCH          = 2026-02-10T11:57:54.667296
MEAN_MOTION    = 14.16148229
ECCENTRICITY   = .0012545
INCLINATION    = 70.9976
RA_OF_ASC_NODE = 208.7055
ARG_OF_PERICENTER = 46.3746
MEAN_ANOMALY   = 313.8415

EPHEMERIS_TYPE = 0
CLASSIFICATION_TYPE = U
NORAD_CAT_ID   = 19650
ELEMENT_SET_NO = 999
REV_AT_EPOCH   = 92304
BSTAR          = .17637E-3
MEAN_MOTION_DOT = .301E-5
MEAN_MOTION_DDOT = 0

CCSDS_OMM_VERS = 2.0
CREATION_DATE  = 
ORIGINATOR     = 

OBJECT_NAME    = INTERCOSMOS 24
OBJECT_ID      = 1989-080A
CENTER_NAME    = EARTH
REF_FRAME      = TEME
TIME_SYSTEM    = UTC
MEAN_ELEMENT_THEORY = SGP/SGP4

EPOCH          = 2026-02-10T07:41:35.842272
MEAN_MOTION    = 12.59519982
ECCENTRICITY   = .1187951
INCLINATION    = 82.6065
RA_OF_ASC_NODE = 122.2191
ARG_OF_PERICENTER = 356.3814
MEAN_ANOMALY   = 2.9212

EPHEMERIS_TYPE = 0
CLASSIFICATION_TYPE = U
NORAD_CAT_ID   = 20261
ELEMENT_SET_NO = 999
REV_AT_EPOCH   = 66335
BSTAR          = .15955E-3
MEAN_MOTION_DOT = .552E-5
MEAN_MOTION_DDOT = 0

CCSDS_OMM_VERS = 2.0
CREATION_DATE  = 
ORIGINATOR     = 

OBJECT_NAME    = SL-14 R/B
OBJECT_ID      = 1989-080C
CENTER_NAME    = EARTH
REF_FRAME      = TEME
TIME_SYSTEM    = UTC
MEAN_ELEMENT_THEORY = SGP/SGP4

EPOCH          = 2026-02-10T08:23:30.250752
MEAN_MOTION    = 12.50459817
ECCENTRICITY   = .1229482
INCLINATION    = 82.5946
RA_OF_ASC_NODE = 190.7364
ARG_OF_PERICENTER = 247.2661
MEAN_ANOMALY   = 99.4084

EPHEMERIS_TYPE = 0
CLASSIFICATION_TYPE = U
NORAD_CAT_ID   = 20262
ELEMENT_SET_NO = 999
REV_AT_EPOCH   = 65673
BSTAR          = .14496E-3
MEAN_MOTION_DOT = .479E-5
MEAN_MOTION_DDOT = 0

CCSDS_OMM_VERS = 2.0
CREATION_DATE  = 
ORIGINATOR     = 

OBJECT_NAME    = DELTA 1 R/B
OBJECT_ID      = 1989-089B
CENTER_NAME    = EARTH
REF_FRAME      = TEME
TIME_SYSTEM    = UTC
MEAN_ELEMENT_THEORY = SGP/SGP4

EPOCH          = 2026-02-10T12:18:38.589696
MEAN_MOTION    = 14.50640295
ECCENTRICITY   = .0068342
INCLINATION    = 97.0725
RA_OF_ASC_NODE = 253.2705
ARG_OF_PERICENTER = 207.5331
MEAN_ANOMALY   = 152.2241

EPHEMERIS_TYPE = 0
CLASSIFICATION_TYPE = U
NORAD_CAT_ID   = 20323
ELEMENT_SET_NO = 999
REV_AT_EPOCH   = 89179
BSTAR          = .10989E-3
MEAN_MOTION_DOT = .409E-5
MEAN_MOTION_DDOT = 0

CCSDS_OMM_VERS = 2.0
CREATION_DATE  = 
ORIGINATOR     = 

OBJECT_NAME    = ARIANE 40 R/B
OBJECT_ID      = 1990-005H
CENTER_NAME    = EARTH
REF_FRAME      = TEME
TIME_SYSTEM    = UTC
MEAN_ELEMENT_THEORY = SGP/SGP4

EPOCH          = 2026-02-10T03:44:29.749632
MEAN_MOTION    = 14.39851822
ECCENTRICITY   = .00089359
INCLINATION    = 98.3146
RA_OF_ASC_NODE = 102.6295
ARG_OF_PERICENTER = 289.4290
MEAN_ANOMALY   = 70.5932

EPHEMERIS_TYPE = 0
CLASSIFICATION_TYPE = U
NORAD_CAT_ID   = 20443
ELEMENT_SET_NO = 999
REV_AT_EPOCH   = 88884
BSTAR          = .10304467E-3
MEAN_MOTION_DOT = .281E-5
MEAN_MOTION_DDOT = 0

